OBJECT_NAME,OBJECT_ID,EPOCH,MEAN_MOTION,ECCENTRICITY,INCLINATION,RA_OF_ASC_NODE,ARG_OF_PERICENTER,MEAN_ANOMALY,EPHEMERIS_TYPE,CLASSIFICATION_TYPE,NORAD_CAT_ID,ELEMENT_SET_NO,REV_AT_EPOCH,BSTAR,MEAN_MOTION_DOT,MEAN_MOTION_DDOT
STARLINK-34651,2025-152V,2026-06-22T11:28:21.258912,15.05675281,.0002317,97.3288,27.6168,89.6452,270.5041,0,U,64861,999,5118,.32168292E-3,.4591E-4,0
STARLINK-34684,2025-152W,2026-06-22T07:41:05.143488,15.05657058,.00021712,97.3285,27.5132,88.0401,272.1075,0,U,64862,999,5116,.12420156E-3,.1736E-4,0
STARLINK-34690,2025-152X,2026-06-22T13:51:55.398528,15.05657722,.0002597,97.3276,27.7758,81.5520,278.6002,0,U,64863,999,5120,.14404238E-4,.151E-5,0
STARLINK-34628,2025-152Y,2026-06-22T04:33:40.167936,15.05660160,.00025171,97.3284,27.3763,85.3773,274.7742,0,U,64864,999,5114,.11097243E-3,.1545E-4,0
STARLINK-34544,2025-152Z,2026-06-22T13:55:54.513984,15.05658103,.00024676,97.3277,27.7650,86.0414,274.1095,0,U,64865,999,5120,.12670821E-3,.1772E-4,0
O3B MPOWER F9,2025-153A,2026-06-22T18:32:50.481600,5.00115778,.00064522,0.0591,9.0736,103.2373,247.7560,0,U,64866,999,1983,0,-.22E-6,0
O3B MPOWER F10,2025-153B,2026-06-22T17:43:53.993568,5.00114920,.00019308,0.0568,5.1271,249.5710,105.2789,0,U,64867,999,2231,0,-.22E-6,0
LIDE,2025-154A,2026-06-22T01:56:08.147040,14.94381422,.00047671,97.6718,236.8001,198.1607,161.9444,0,U,64869,999,4973,.19121781E-3,.2002E-4,0
TRACERS 1,2025-154B,2026-06-22T12:49:26.062752,14.93484731,.00042614,97.6687,237.0494,227.8367,132.2491,0,U,64870,999,4979,.11931533E-3,.12E-4,0
ATHENA EPIC,2025-154C,2026-06-22T11:50:20.017536,14.94118178,.00056977,97.6671,237.1720,217.1067,142.9760,0,U,64871,999,4980,.91474924E-4,.922E-5,0
SKYCRAFT-4B,2025-154D,2026-06-22T20:26:44.241216,14.97674470,.00040869,97.6653,238.3700,220.2847,139.8073,0,U,64872,999,4989,.45336377E-3,.5252E-4,0
TRACERS 2,2025-154E,2026-06-22T09:36:02.794176,14.93496184,.00023481,97.6690,236.9299,286.1487,73.9474,0,U,64873,999,4977,.11950101E-3,.1202E-4,0
PEXT (BARD),2025-154F,2026-06-22T18:24:18.102816,15.20473151,.00011715,97.3961,238.6727,251.3728,108.7381,0,U,64874,999,5069,.1012267E-3,.2142E-4,0
REAL,2025-154G,2026-06-22T10:42:28.821024,15.32933594,.00019759,97.4026,241.7834,122.9187,237.2246,0,U,64875,999,5085,.54832523E-3,.17385E-3,0
IONOSFERA-M 3,2025-155A,2026-06-22T19:21:24.167808,14.21487246,.00013255,98.6034,135.5702,147.1642,212.9618,0,U,64876,999,4720,.3445953E-4,.32E-6,0
IONOSFERA-M 4,2025-155B,2026-06-22T20:11:33.698400,14.21489541,.00012324,98.6026,135.5214,117.5604,242.5699,0,U,64877,999,4720,.39856004E-4,.44E-6,0
INNOSAT 16 (RS92S7),2025-155C,2026-06-22T20:09:37.877472,15.25506710,.0011201,97.4563,140.9496,156.4610,203.7143,0,U,64878,999,8153,.18059414E-3,.4509E-4,0
GEOSCAN 6 (RS92S6),2025-155D,2026-06-22T19:19:46.083936,15.30238301,.00090093,97.4556,142.3789,144.8057,215.3780,0,U,64879,999,8162,.24990417E-3,.7242E-4,0
GEOSCAN 1 (RS92S1),2025-155E,2026-06-22T19:20:07.843776,15.30843580,.00089572,97.4553,142.5320,144.6223,215.5614,0,U,64880,999,8163,.29711644E-3,.8789E-4,0
239ALFEROV (RS61S),2025-155F,2026-06-22T19:58:46.000704,15.33067874,.00086786,97.4553,143.1395,142.2917,217.8935,0,U,64881,999,8167,.34568495E-3,.10979E-3,0
2025-155G,2025-155G,2026-06-22T20:28:49.161792,15.29596531,.00084482,97.4581,142.3969,145.4156,214.7635,0,U,64882,999,8162,.26441895E-3,.7515E-4,0
2025-155H,2025-155H,2026-06-22T15:46:21.291168,15.29603583,.00084657,97.4572,142.1756,141.7143,218.4700,0,U,64883,999,8159,.26049151E-3,.7404E-4,0
2025-155J,2025-155J,2026-06-22T17:20:04.854624,15.29611739,.00090152,97.4568,142.2331,136.5936,223.6016,0,U,64884,999,8160,.26315299E-3,.7483E-4,0
2025-155K,2025-155K,2026-06-22T19:01:32.617632,15.39998117,.00093205,97.4506,144.5139,131.5450,228.6597,0,U,64885,999,8177,.71241874E-3,.28447E-3,0
2025-155L,2025-155L,2026-06-22T19:57:57.792960,15.41982004,.00091222,97.4461,144.8528,129.6757,230.5295,0,U,64886,999,8180,.65346252E-3,.27853E-3,0
2025-155M,2025-155M,2026-06-22T19:56:04.446528,15.38522058,.00092933,97.4499,144.2052,129.9969,230.2094,0,U,64887,999,8175,.61763277E-3,.23474E-3,0
2025-155N,2025-155N,2026-06-22T19:39:33.986304,15.42073818,.00090619,97.4469,144.9010,128.1025,232.1041,0,U,64888,999,8180,.67968087E-3,.29067E-3,0
2025-155P,2025-155P,2026-06-22T20:11:14.837280,15.26553182,.00082779,97.4592,141.6773,145.5737,214.6039,0,U,64889,999,8157,.15121313E-3,.3882E-4,0
GEOSCAN 2 (RS92S2),2025-155Q,2026-06-22T19:09:36.208800,15.31114407,.00086651,97.4552,142.6794,133.0504,227.1464,0,U,64890,999,8164,.29217968E-3,.8715E-4,0
GEOSCAN 5 (RS92S5),2025-155R,2026-06-22T19:41:16.918080,15.33385333,.00074631,97.4545,143.2669,145.7462,214.4263,0,U,64891,999,8168,.34596133E-3,.11095E-3,0
