STARLINK-34651          
1 64861U 25152V   26173.47802383  .00004591  00000+0  32168-3 0  9995
2 64861  97.3288  27.6168 0002317  89.6452 270.5041 15.05675281 51185
STARLINK-34684          
1 64862U 25152W   26173.32019842  .00001736  00000+0  12420-3 0  9997
2 64862  97.3285  27.5132 0002171  88.0401 272.1075 15.05657058 51163
STARLINK-34690          
1 64863U 25152X   26173.57772452  .00000151  00000+0  14404-4 0  9993
2 64863  97.3276  27.7758 0002597  81.5520 278.6002 15.05657722 51206
STARLINK-34628          
1 64864U 25152Y   26173.19004824  .00001545  00000+0  11097-3 0  9995
2 64864  97.3284  27.3763 0002517  85.3773 274.7742 15.05660160 51143
STARLINK-34544          
1 64865U 25152Z   26173.58049206  .00001772  00000+0  12671-3 0  9993
2 64865  97.3277  27.7650 0002467  86.0414 274.1095 15.05658103 51205
O3B MPOWER F9           
1 64866U 25153A   26173.77280650 -.00000022  00000+0  00000+0 0  9993
2 64866   0.0591   9.0736 0006452 103.2373 247.7560  5.00115778 19834
O3B MPOWER F10          
1 64867U 25153B   26173.73881937 -.00000022  00000+0  00000+0 0  9995
2 64867   0.0568   5.1271 0001930 249.5710 105.2789  5.00114920 22311
LIDE                    
1 64869U 25154A   26173.08064985  .00002002  00000+0  19122-3 0  9990
2 64869  97.6718 236.8001 0004767 198.1607 161.9444 14.94381422 49739
TRACERS 1               
1 64870U 25154B   26173.53432943  .00001200  00000+0  11932-3 0  9995
2 64870  97.6687 237.0494 0004261 227.8367 132.2491 14.93484731 49792
ATHENA EPIC             
1 64871U 25154C   26173.49328724  .00000922  00000+0  91475-4 0  9993
2 64871  97.6671 237.1720 0005697 217.1067 142.9760 14.94118178 49801
SKYCRAFT-4B             
1 64872U 25154D   26173.85190094  .00005252  00000+0  45336-3 0  9996
2 64872  97.6653 238.3700 0004086 220.2847 139.8073 14.97674470 49891
TRACERS 2               
1 64873U 25154E   26173.40003234  .00001202  00000+0  11950-3 0  9993
2 64873  97.6690 236.9299 0002348 286.1487  73.9474 14.93496184 49770
PEXT (BARD)             
1 64874U 25154F   26173.76687619  .00002142  00000+0  10123-3 0  9993
2 64874  97.3961 238.6727 0001171 251.3728 108.7381 15.20473151 50696
REAL                    
1 64875U 25154G   26173.44616691  .00017385  00000+0  54833-3 0  9992
2 64875  97.4026 241.7834 0001975 122.9187 237.2246 15.32933594 50859
IONOSFERA-M 3           
1 64876U 25155A   26173.80652972  .00000032  00000+0  34460-4 0  9992
2 64876  98.6034 135.5702 0001325 147.1642 212.9618 14.21487246 47203
IONOSFERA-M 4           
1 64877U 25155B   26173.84136225  .00000044  00000+0  39856-4 0  9992
2 64877  98.6026 135.5214 0001232 117.5604 242.5699 14.21489541 47207
INNOSAT 16 (RS92S7)     
1 64878U 25155C   26173.84002173  .00004509  00000+0  18059-3 0  9998
2 64878  97.4563 140.9496 0011201 156.4610 203.7143 15.25506710 81539
GEOSCAN 6 (RS92S6)      
1 64879U 25155D   26173.80539449  .00007242  00000+0  24990-3 0  9994
2 64879  97.4556 142.3789 0009009 144.8057 215.3780 15.30238301 81622
GEOSCAN 1 (RS92S1)      
1 64880U 25155E   26173.80564634  .00008789  00000+0  29712-3 0  9994
2 64880  97.4553 142.5320 0008957 144.6223 215.5614 15.30843580 81638
239ALFEROV (RS61S)      
1 64881U 25155F   26173.83247686  .00010979  00000+0  34568-3 0  9992
2 64881  97.4553 143.1395 0008678 142.2917 217.8935 15.33067874 81674
2025-155G               
1 64882U 25155G   26173.85334678  .00007515  00000+0  26442-3 0  9997
2 64882  97.4581 142.3969 0008448 145.4156 214.7635 15.29596531 81629
2025-155H               
1 64883U 25155H   26173.65719087  .00007404  00000+0  26049-3 0  9997
2 64883  97.4572 142.1756 0008465 141.7143 218.4700 15.29603583 81592
2025-155J               
1 64884U 25155J   26173.72227841  .00007483  00000+0  26315-3 0  9991
2 64884  97.4568 142.2331 0009015 136.5936 223.6016 15.29611739 81604
2025-155K               
1 64885U 25155K   26173.79273863  .00028447  00000+0  71242-3 0  9996
2 64885  97.4506 144.5139 0009320 131.5450 228.6597 15.39998117 81779
2025-155L               
1 64886U 25155L   26173.83191890  .00027853  00000+0  65346-3 0  9999
2 64886  97.4461 144.8528 0009122 129.6757 230.5295 15.41982004 81805
2025-155M               
1 64887U 25155M   26173.83060702  .00023474  00000+0  61763-3 0  9991
2 64887  97.4499 144.2052 0009293 129.9969 230.2094 15.38522058 81753
2025-155N               
1 64888U 25155N   26173.81914336  .00029067  00000+0  67968-3 0  9998
2 64888  97.4469 144.9010 0009061 128.1025 232.1041 15.42073818 81808
2025-155P               
1 64889U 25155P   26173.84114395  .00003882  00000+0  15121-3 0  9990
2 64889  97.4592 141.6773 0008277 145.5737 214.6039 15.26553182 81572
GEOSCAN 2 (RS92S2)      
1 64890U 25155Q   26173.79833575  .00008715  00000+0  29218-3 0  9996
2 64890  97.4552 142.6794 0008665 133.0504 227.1464 15.31114407 81647
GEOSCAN 5 (RS92S5)      
1 64891U 25155R   26173.82033470  .00011095  00000+0  34596-3 0  9997
2 64891  97.4545 143.2669 0007463 145.7462 214.4263 15.33385333 81686
